1 26259U 99057EV  18003.56388185 +.00000607 +00000-0 +16017-3 0  9991
2 26259 098.5768 354.6816 0091344 143.5405 355.1658 14.50190662934918
1 26260U 99057EW  18003.51314205  .00000601  00000-0  15870-3 0  9990
2 26260  98.5232 353.4505 0086949 144.1088 337.1702 14.50437661934752
1 26262U 99057EY  18003.53886670 +.00000635 +00000-0 +15829-3 0  9995
2 26262 098.5264 354.2348 0064944 352.0502 132.0550 14.54002726937216
1 26265U 99057FB  18003.61416495 +.00000195 +00000-0 +75944-4 0  9997
2 26265 098.6718 326.4971 0104929 007.4809 047.2630 14.37694961930810
1 26266U 99057FC  18003.76040775  .00000456  00000-0  12484-3 0  9997
2 26266  98.6036 352.5742 0101681 175.5092 184.7038 14.49183375934361
1 26268U 99057FE  18003.51416433 +.00000709 +00000-0 +10033-3 0  9999
2 26268 098.7448 205.6860 0009860 153.1928 206.9793 14.80649955951704
1 26270U 99057FG  18003.54183464 +.00000830 +00000-0 +16128-3 0  9996
2 26270 098.3192 002.2450 0068101 182.2742 177.8160 14.64462102940379
1 26272U 99057FJ  18003.50888347 +.00000558 +00000-0 +13392-3 0  9993
2 26272 098.4917 358.1411 0078446 330.4529 155.4331 14.55733567937824
1 26273U 99057FK  18003.58336279 +.00000111 +00000-0 +25727-4 0  9995
2 26273 098.7022 240.7266 0066683 305.0387 083.8197 14.73771624954222
1 26275U 99057FM  18003.51292760 +.00000976 +00000-0 +17882-3 0  9997
2 26275 098.2047 358.7112 0069268 114.2198 003.1795 14.66571384941417
1 26280U 99057FS  18003.53596411 +.00000030 +00000-0 +25263-4 0  9999
2 26280 098.6216 316.3843 0087167 318.3589 106.1560 14.36130802931231
1 26283U 99057FV  18003.49055281 +.00000294 +00000-0 +92039-4 0  9999
2 26283 098.5568 337.9176 0090502 151.2383 335.9477 14.45653463934251
1 26284U 99057FW  18003.49155484 +.00001154 +00000-0 +16913-3 0  9998
2 26284 098.0943 005.6738 0048914 222.5796 137.1617 14.76800323945283
1 26286U 99057FY  18003.46511913 +.00000358 +00000-0 +99837-4 0  9992
2 26286 098.4564 337.6380 0074622 351.1465 134.3571 14.50778897938569
1 26294U 99057GG  18003.51894394 +.00000280 +00000-0 +89478-4 0  9998
2 26294 098.5813 338.4672 0089792 162.0517 325.3120 14.45134301935424
1 26298U 00020A   18003.22232029 -.00000294  00000-0  00000+0 0  9998
2 26298   8.8023  44.4609 0007049 211.3254 234.7709  0.99836793 64832
1 26299U 00020B   18003.49167545  .00002174  00000-0  62404-3 0  9996
2 26299   7.4876 132.8978 5934578 208.2290  99.8367  4.12230183227359
1 26300U 99057GL  18003.59314742 +.00000495 +00000-0 +13060-3 0  9999
2 26300 098.4522 342.2973 0080979 021.7898 042.0860 14.51498354936935
1 26306U 99057GP  18003.35093287 +.00000044 +00000-0 +29802-4 0  9999
2 26306 098.6179 313.5491 0098697 329.0909 158.5408 14.35873460930088
1 26310U 99057GT  18003.38286388 +.00000121 +00000-0 +49976-4 0  9993
2 26310 098.6350 336.4413 0097570 276.8627 238.0876 14.41217776931967
1 26313U 99057GW  18003.59402693 +.00000320 +00000-0 +97693-4 0  9998
2 26313 098.5341 338.2259 0087510 132.8173 289.5567 14.46471247934889
1 26321U 99057HE  18003.50477114 +.00001416 +00000-0 +20646-3 0  9998
2 26321 098.0741 009.4151 0051743 315.0103 044.6920 14.76559162943881
1 26323U 99057HG  18003.45478272 +.00000374 +00000-0 +11014-3 0  9991
2 26323 098.5246 337.4570 0080850 082.1368 041.2128 14.47509384935819
1 26329U 99057HN  18003.79051104  .00000621  00000-0  15109-3 0  9999
2 26329  98.5080 357.9141 0084077  31.3342  90.7398 14.54373896936404
1 26333U 99057HS  18003.53586949  .00000884  00000-0  17151-3 0  9996
2 26333  98.2616 355.0189 0063375 129.8548 350.0586 14.64486651940828
1 26336U 99057HV  18003.39186476 +.00000548 +00000-0 +14059-3 0  9995
2 26336 098.3683 340.2707 0073802 010.0544 350.2108 14.52717578935795
1 26338U 99057HX  18003.46957622  .00000051  00000-0  31664-4 0  9995
2 26338  98.6106 319.4502 0092933 312.3572 159.6549 14.36886603932904
1 26339U 99057HY  18003.53986138 +.00000955 +00000-0 +18095-3 0  9993
2 26339 098.2149 356.1364 0063349 118.2769 242.4846 14.65368523940270
1 26347U 99057JG  18002.89223455 +.00000329 +00000-0 +10030-3 0  9992
2 26347 098.5233 335.8445 0063579 061.9401 351.6382 14.47265916934051
1 26350U 99057JK  18002.94636100 +.00005568 +00000-0 +23068-3 0  9992
2 26350 098.6144 353.1117 0011476 038.1515 322.0529 15.24370952963484
1 26351U 99057JL  18003.51107767 +.00000147 +00000-0 +52753-4 0  9991
2 26351 098.3393 319.5997 0063023 026.8668 333.5764 14.46099381937732
1 26352U 00022A   18003.51166969 -.00000262 +00000-0 +00000-0 0  9998
2 26352 005.3581 072.1304 0006923 189.2522 188.8462 00.99045937021903
1 26360U 00025A   18003.57285029 +.00000018 +00000-0 +00000-0 0  9993
2 26360 053.1591 146.5302 0043713 101.1801 341.3968 02.00551501129368
1 26365U 00026A   18003.52926007 +.00000290 +00000-0 +12472-4 0  9994
2 26365 086.3475 190.0372 0010004 002.9165 357.2134 15.17650563973437
1 26366U 00026B   18003.51966669  .00000283  00000-0  11857-4 0  9990
2 26366  86.3494 187.5648 0004986 299.0554  61.0188 15.18587152974152
1 26369U 00028A   18003.22888654 -.00000111  00000-0  00000+0 0  9994
2 26369   1.4347  85.2734 0007020 230.8028 216.4032  1.00271119 64525
1 26372U 00029A   18003.15639792  .00000075  00000-0  00000+0 0  9996
2 26372  12.0598  30.3890 0004104 257.8983 249.1243  1.00209826 64453
1 26373U 00029B   18002.92908934 -.00000172 +00000-0 +00000-0 0  9998
2 26373 011.7794 029.7350 0272593 258.2623 222.4474 01.00405066064450
1 26374U 00030A   18003.49373103 +.00000596 +00000-0 +60254-4 0  9998
2 26374 068.9302 055.6577 0643509 046.5640 318.7189 14.05738790884246
1 26375U 00030B   18003.44762342 +.00000962 +00000-0 +96849-4 0  9997
2 26375 068.9555 000.0596 0680109 350.9433 007.9876 13.96659306231959
1 26376U 77053C   18003.21812360 -.00000050 +00000-0 +00000-0 0  9997
2 26376 064.4676 355.7863 0354947 230.5613 128.0808 02.04279710131091
1 26378U 00031A   18003.79158764 -.00000020  00000-0  00000+0 0  9991
2 26378   7.4094  51.3505 0008523 192.8359 182.9483  0.98767536 63731
1 26381U 00031D   18002.35303743 -.00000251  00000-0  00000+0 0  9991
2 26381  13.2082  27.8984 0009226   9.6935 173.8609  0.99443726 63655
1 26382U 00032A   18002.45067497 +.00000089 +00000-0 +00000-0 0  9996
2 26382 010.1800 038.6171 0007150 246.9110 200.1743 01.00079054064020
1 26383U 00032B   18003.53125862 +.00002657 +00000-0 +31722-3 0  9999
2 26383 027.1365 137.8657 6356257 060.1930 347.8689 03.54502089184709
1 26384U 00033A   18003.78695080  .00000085  00000-0  23822-4 0  9998
2 26384  97.9918  69.7124 0016494 112.1090 248.1857 14.66398001936208
1 26385U 00033B   18003.64081066  .00000019  00000-0  12390-4 0  9992
2 26385  98.0152  68.5576 0015826 171.7821 188.3644 14.64418671935268
1 26386U 00033C   18003.18986020  .00000125  00000-0  29927-4 0  9998
2 26386  97.9984  75.1249 0012198  71.4816 288.7714 14.68405408936789
1 26387U 00033D   18003.22879819 +.00000094 +00000-0 +24561-4 0  9995
2 26387 097.9460 067.1198 0027644 062.4830 338.9789 14.68348859194929
1 26388U 00034A   18003.61680932 -.00000236 +00000-0 +00000-0 0  9993
2 26388 007.8226 054.1730 0011196 246.9101 112.9364 01.00263119064239
1 26389U 00034B   18003.49809708 +.00007193 +00000-0 +70722-3 0  9993
2 26389 026.8677 113.9389 5483983 012.2390 356.9528 04.87287680256255
1 26390U 00035A   17363.14977668 +.00000100 +00000-0 +00000-0 0  9997
2 26390 059.4822 222.2820 0001012 081.6365 255.7107 01.57876952023072
1 26393U 00035D   18003.61778838 -.00000134 +00000-0 +00000-0 0  9990
2 26393 060.5172 326.7646 7578797 276.3140 350.1045 01.45657699093128
1 26394U 00036A   18003.60076209 -.00000081 +00000-0 +00000-0 0  9995
2 26394 012.0714 031.1255 0002476 249.2691 110.5220 01.00264715064085
1 26397U 00036D   18003.58263865 -.00000081 +00000-0 +00000-0 0  9991
2 26397 012.0533 031.0475 0017766 343.1489 190.6544 01.00143330016407
1 26402U 00038A   18003.67014345 -.00000159  00000-0  00000+0 0  9992
2 26402   4.5626  66.0947 0003769 222.4049 319.7580  1.00270434 63967
1 26407U 00040A   18003.59980845 -.00000067 +00000-0 +00000-0 0  9997
2 26407 056.5600 337.3272 0201456 271.8877 116.2469 02.00564500128044
1 26410U 00041A   18001.46557360  .00000187  00000-0  00000+0 0  9999
2 26410 130.9147 334.7033 4251372 157.0555 359.4309  0.44274367 18374
1 26411U 00041B   18005.95169582  .00000123  00000-0  00000+0 0  9993
2 26411 129.9996 336.0151 4989357 165.2515 358.9999  0.44230675 18473
1 26416U 99057JM  18003.74909355  .00001125  00000-0  17706-3 0  9996
2 26416  98.1187   9.6360 0051106 351.7456  62.7377 14.73707664940081
1 26423U 99057JU  18003.55136524 +.00002047 +00000-0 +22145-3 0  9990
2 26423 097.8597 039.5898 0051221 203.0450 156.8469 14.88462996944925
1 26430U 99057KB  18003.18134245 +.00005221 +00000-0 +40806-3 0  9996
2 26430 098.2213 083.8287 0044080 208.4219 151.4598 15.00803105943608
1 26432U 99057KD  18003.22432377 +.00000637 +00000-0 +18538-3 0  9993
2 26432 098.7291 011.0946 0132229 223.5095 135.5603 14.43012246923241
1 26436U 99057KH  18003.08160988 +.00000237 +00000-0 +29294-3 0  9994
2 26436 099.4935 059.0294 0714354 125.6370 241.3430 12.95381811202896
1 26441U 99057KN  18003.44605140 +.00000783 +00000-0 +15475-3 0  9996
2 26441 098.2821 353.6717 0061751 146.4329 214.0810 14.64043422935610
1 26442U 99057KP  18003.12023507 +.00000217 +00000-0 +66813-4 0  9998
2 26442 098.2324 326.1978 0064817 310.7763 182.2178 14.49569425932784
1 26443U 99057KQ  18003.40961542 +.00000089 +00000-0 +42215-4 0  9997
2 26443 098.6313 325.5499 0097474 285.1720 203.5240 14.38835271929271
1 26444U 99057KR  18003.29312005 +.00000139 +00000-0 +40027-4 0  9994
2 26444 098.4922 292.0855 0079224 237.4005 275.0805 14.58117548938485
1 26446U 99057KT  18003.72470929  .00000240  00000-0  86255-4 0  9990
2 26446  98.6694 337.0079 0106706 349.2467  10.6440 14.39794104926194
1 26448U 99057KV  18002.51867254  .00000947  00000-0  17476-3 0  9991
2 26448  98.3924  25.8432 0076198 273.9298  85.3197 14.66178375937871
